OBJECT_NAME,OBJECT_ID,EPOCH,MEAN_MOTION,ECCENTRICITY,INCLINATION,RA_OF_ASC_NODE,ARG_OF_PERICENTER,MEAN_ANOMALY,EPHEMERIS_TYPE,CLASSIFICATION_TYPE,NORAD_CAT_ID,ELEMENT_SET_NO,REV_AT_EPOCH,BSTAR,MEAN_MOTION_DOT,MEAN_MOTION_DDOT
ONEWEB-0410,2022-012A,2026-06-09T13:08:43.227456,13.17648239,.00031608,87.9148,7.3764,81.1625,278.9864,0,U,51622,999,21269,.20293027E-3,.92E-6,0
ONEWEB-0411,2022-012B,2026-06-09T16:23:01.868928,13.10371852,.0001522,87.8845,37.7608,98.0908,262.0392,0,U,51623,999,20830,-.19635291E-2,-.673E-5,0
ONEWEB-0415,2022-012C,2026-06-09T16:18:15.541056,13.10371325,.0001757,87.8839,37.7607,89.4516,270.6812,0,U,51624,999,20830,-.17310458E-2,-.592E-5,0
ONEWEB-0416,2022-012D,2026-06-09T16:35:00.018816,13.10374226,.00019541,87.8839,37.7772,94.6482,265.4869,0,U,51625,999,20834,-.1850405E-2,-.633E-5,0
ONEWEB-0422,2022-012E,2026-06-09T13:23:18.548448,13.17648748,.00012773,87.9147,7.3757,74.9184,285.2089,0,U,51626,999,21280,.19345802E-3,.88E-6,0
ONEWEB-0423,2022-012F,2026-06-09T13:13:35.945472,13.17649921,.00019288,87.9140,7.3830,83.5869,276.5482,0,U,51627,999,21269,.77397E-6,.13E-6,0
ONEWEB-0425,2022-012G,2026-06-09T09:29:32.358624,13.10376053,.00021143,87.8843,37.8191,78.4594,281.6770,0,U,51628,999,20830,-.448154E-3,-.144E-5,0
ONEWEB-0428,2022-012H,2026-06-09T16:20:38.576256,13.10372474,.00017949,87.8833,37.7690,79.5532,280.5797,0,U,51629,999,20830,-.17318503E-2,-.592E-5,0
ONEWEB-0431,2022-012J,2026-06-09T15:37:27.266592,13.10372384,.00014009,87.8840,37.7675,98.2486,261.8800,0,U,51630,999,20835,.18522327E-2,.659E-5,0
ONEWEB-0434,2022-012K,2026-06-09T16:54:19.855008,13.10375547,.00023923,87.8847,37.7820,74.5715,285.5676,0,U,51631,999,20834,-.11999464E-3,-.29E-6,0
ONEWEB-0435,2022-012L,2026-06-09T09:46:14.912256,13.10373010,.00014791,87.8840,37.8280,78.0049,282.1244,0,U,51632,999,20829,.11406059E-2,.411E-5,0
ONEWEB-0436,2022-012M,2026-06-09T14:50:46.633920,13.17648677,.00016318,87.9144,7.3509,86.0791,274.0527,0,U,51633,999,21268,-.22315825E-4,.4E-7,0
ONEWEB-0438,2022-012N,2026-06-09T16:42:10.088640,13.10375096,.00020083,87.8842,37.7734,80.4626,279.6728,0,U,51634,999,20836,-.11733501E-2,-.397E-5,0
ONEWEB-0439,2022-012P,2026-06-09T16:46:57.147456,13.10374821,.00018173,87.8840,37.7602,77.3856,282.7474,0,U,51635,999,20834,-.11049576E-2,-.373E-5,0
ONEWEB-0442,2022-012Q,2026-06-09T14:39:51.124032,13.17649086,.00024298,87.9139,7.3858,85.8141,274.3268,0,U,51636,999,21267,.13216407E-3,.64E-6,0
ONEWEB-0443,2022-012R,2026-06-09T13:18:26.375616,13.17648846,.00018825,87.9138,7.3981,76.2615,283.8726,0,U,51637,999,21271,.58212731E-4,.35E-6,0
ONEWEB-0444,2022-012S,2026-06-09T16:32:36.073824,13.10374298,.00019004,87.8838,37.7604,76.2156,283.9183,0,U,51638,999,20835,-.15641489E-2,-.533E-5,0
ONEWEB-0445,2022-012T,2026-06-09T09:43:53.182560,13.10374817,.00017808,87.8851,37.8049,88.0132,272.1199,0,U,51639,999,20832,.11534164E-2,.415E-5,0
ONEWEB-0446,2022-012U,2026-06-09T16:30:12.245472,13.10372988,.00018475,87.8842,37.7782,86.1753,273.9585,0,U,51640,999,20834,-.16485475E-2,-.563E-5,0
ONEWEB-0448,2022-012V,2026-06-09T16:37:23.493792,13.10374269,.00017602,87.8842,37.7737,78.7444,281.3881,0,U,51641,999,20831,-.1776898E-2,-.608E-5,0
ONEWEB-0449,2022-012W,2026-06-09T16:44:33.732096,13.10375091,.00022091,87.8844,37.7578,76.3775,283.7598,0,U,51642,999,20832,-.11884333E-2,-.402E-5,0
ONEWEB-0451,2022-012X,2026-06-09T14:45:56.152800,13.17648706,.00020608,87.9147,7.3489,83.5345,276.6022,0,U,51643,999,21266,.39182405E-4,.28E-6,0
ONEWEB-0452,2022-012Y,2026-06-09T14:43:29.331552,13.17648086,.00019771,87.9137,7.3869,78.2295,281.9058,0,U,51644,999,21267,.75233919E-4,.42E-6,0
ONEWEB-0456,2022-012AA,2026-06-09T16:58:53.524416,13.10373849,.00016579,87.8854,37.7426,78.0670,282.0644,0,U,51646,999,20836,.84628015E-4,.42E-6,0
ONEWEB-0457,2022-012AB,2026-06-09T16:25:13.159776,13.10371975,.00021199,87.8837,37.7661,90.2801,269.8570,0,U,51647,999,20836,-.18442682E-2,-.631E-5,0
ONEWEB-0458,2022-012AC,2026-06-09T16:56:31.389504,13.10375038,.00019115,87.8851,37.7489,75.3785,284.7554,0,U,51648,999,20832,.11663846E-3,.53E-6,0
ONEWEB-0461,2022-012AD,2026-06-09T15:15:04.376448,13.17648055,.00019005,87.9147,7.3589,89.6392,270.4957,0,U,51649,999,21289,.36731545E-3,.155E-5,0
ONEWEB-0463,2022-012AE,2026-06-09T14:48:21.614976,13.17648267,.00019445,87.9136,7.3860,90.8854,269.2500,0,U,51650,999,21267,.1028994E-3,.53E-6,0
ONEWEB-0464,2022-012AF,2026-06-09T16:51:44.288352,13.10375589,.00016694,87.8840,37.7721,73.0177,287.1133,0,U,51651,999,20834,-.27152052E-3,-.82E-6,0
ONEWEB-0468,2022-012AG,2026-06-09T17:01:18.588288,13.10375525,.00016231,87.8842,37.7648,71.8500,288.2804,0,U,51652,999,20832,.74255996E-3,.272E-5,0
