ONEWEB-0410             
1 51622U 22012A   26160.54772254  .00000092  00000+0  20293-3 0  9993
2 51622  87.9148   7.3764 0003160  81.1625 278.9864 13.17648239212693
ONEWEB-0411             
1 51623U 22012B   26160.68266052 -.00000673  00000+0 -19635-2 0  9997
2 51623  87.8845  37.7608 0001522  98.0908 262.0392 13.10371852208302
ONEWEB-0415             
1 51624U 22012C   26160.67934654 -.00000592  00000+0 -17310-2 0  9995
2 51624  87.8839  37.7607 0001757  89.4516 270.6812 13.10371325208301
ONEWEB-0416             
1 51625U 22012D   26160.69097244 -.00000633  00000+0 -18504-2 0  9995
2 51625  87.8839  37.7772 0001954  94.6482 265.4869 13.10374226208345
ONEWEB-0422             
1 51626U 22012E   26160.55785357  .00000088  00000+0  19346-3 0  9998
2 51626  87.9147   7.3757 0001277  74.9184 285.2089 13.17648748212803
ONEWEB-0423             
1 51627U 22012F   26160.55111048  .00000013  00000+0  77397-6 0  9990
2 51627  87.9140   7.3830 0001928  83.5869 276.5482 13.17649921212699
ONEWEB-0425             
1 51628U 22012G   26160.39551341 -.00000144  00000+0 -44815-3 0  9990
2 51628  87.8843  37.8191 0002114  78.4594 281.6770 13.10376053208309
ONEWEB-0428             
1 51629U 22012H   26160.68100204 -.00000592  00000+0 -17319-2 0  9996
2 51629  87.8833  37.7690 0001794  79.5532 280.5797 13.10372474208309
ONEWEB-0431             
1 51630U 22012J   26160.65101003  .00000659  00000+0  18522-2 0  9992
2 51630  87.8840  37.7675 0001400  98.2486 261.8800 13.10372384208354
ONEWEB-0434             
1 51631U 22012K   26160.70439647 -.00000029  00000+0 -11999-3 0  9992
2 51631  87.8847  37.7820 0002392  74.5715 285.5676 13.10375547208344
ONEWEB-0435             
1 51632U 22012L   26160.40711704  .00000411  00000+0  11406-2 0  9992
2 51632  87.8840  37.8280 0001479  78.0049 282.1244 13.10373010208294
ONEWEB-0436             
1 51633U 22012M   26160.61859530  .00000004  00000+0 -22316-4 0  9999
2 51633  87.9144   7.3509 0001631  86.0791 274.0527 13.17648677212685
ONEWEB-0438             
1 51634U 22012N   26160.69595010 -.00000397  00000+0 -11734-2 0  9994
2 51634  87.8842  37.7734 0002008  80.4626 279.6728 13.10375096208360
ONEWEB-0439             
1 51635U 22012P   26160.69927254 -.00000373  00000+0 -11050-2 0  9999
2 51635  87.8840  37.7602 0001817  77.3856 282.7474 13.10374821208346
ONEWEB-0442             
1 51636U 22012Q   26160.61100838  .00000064  00000+0  13216-3 0  9995
2 51636  87.9139   7.3858 0002429  85.8141 274.3268 13.17649086212670
ONEWEB-0443             
1 51637U 22012R   26160.55447194  .00000035  00000+0  58213-4 0  9993
2 51637  87.9138   7.3981 0001882  76.2615 283.8726 13.17648846212711
ONEWEB-0444             
1 51638U 22012S   26160.68930641 -.00000533  00000+0 -15641-2 0  9993
2 51638  87.8838  37.7604 0001900  76.2156 283.9183 13.10374298208351
ONEWEB-0445             
1 51639U 22012T   26160.40547665  .00000415  00000+0  11534-2 0  9998
2 51639  87.8851  37.8049 0001780  88.0132 272.1199 13.10374817208323
ONEWEB-0446             
1 51640U 22012U   26160.68764173 -.00000563  00000+0 -16485-2 0  9991
2 51640  87.8842  37.7782 0001847  86.1753 273.9585 13.10372988208347
ONEWEB-0448             
1 51641U 22012V   26160.69263303 -.00000608  00000+0 -17769-2 0  9998
2 51641  87.8842  37.7737 0001760  78.7444 281.3881 13.10374269208319
ONEWEB-0449             
1 51642U 22012W   26160.69761264 -.00000402  00000+0 -11884-2 0  9992
2 51642  87.8844  37.7578 0002209  76.3775 283.7598 13.10375091208321
ONEWEB-0451             
1 51643U 22012X   26160.61523325  .00000028  00000+0  39182-4 0  9994
2 51643  87.9147   7.3489 0002060  83.5345 276.6022 13.17648706212669
ONEWEB-0452             
1 51644U 22012Y   26160.61353393  .00000042  00000+0  75234-4 0  9995
2 51644  87.9137   7.3869 0001977  78.2295 281.9058 13.17648086212672
ONEWEB-0456             
1 51646U 22012AA  26160.70756394  .00000042  00000+0  84628-4 0  9992
2 51646  87.8854  37.7426 0001657  78.0670 282.0644 13.10373849208364
ONEWEB-0457             
1 51647U 22012AB  26160.68418009 -.00000631  00000+0 -18443-2 0  9994
2 51647  87.8837  37.7661 0002119  90.2801 269.8570 13.10371975208362
ONEWEB-0458             
1 51648U 22012AC  26160.70591886  .00000053  00000+0  11664-3 0  9998
2 51648  87.8851  37.7489 0001911  75.3785 284.7554 13.10375038208329
ONEWEB-0461             
1 51649U 22012AD  26160.63546732  .00000155  00000+0  36732-3 0  9997
2 51649  87.9147   7.3589 0001900  89.6392 270.4957 13.17648055212898
ONEWEB-0463             
1 51650U 22012AE  26160.61691684  .00000053  00000+0  10290-3 0  9992
2 51650  87.9136   7.3860 0001944  90.8854 269.2500 13.17648267212676
ONEWEB-0464             
1 51651U 22012AF  26160.70259593 -.00000082  00000+0 -27152-3 0  9991
2 51651  87.8840  37.7721 0001669  73.0177 287.1133 13.10375589208343
ONEWEB-0468             
1 51652U 22012AG  26160.70924292  .00000272  00000+0  74256-3 0  9993
2 51652  87.8842  37.7648 0001623  71.8500 288.2804 13.10375525208325
